start=new Date('2021-12-22T00:00:00.000Z').valueOf();
sats=[{"MEAN_MOTION_DOT":"0.00002180","APOAPSIS":"548.481","RA_OF_ASC_NODE":"319.5320","CENTER_NAME":"EARTH","RCS_SIZE":"MEDIUM","TIME_SYSTEM":"UTC","LAUNCH_DATE":"2021-03-11","BSTAR":"0.00016514000000","INCLINATION":"53.0539","OBJECT_TYPE":"PAYLOAD","REF_FRAME":"TEME","MEAN_MOTION_DDOT":"0.0000000000000","PERIOD":"95.591","TLE_LINE1":"1 47819U 21018AJ  21355.89853376  .00002180  00000-0  16514-3 0  9997","OBJECT_NAME":"STARLINK-2402","REV_AT_EPOCH":"4472","DECAY_DATE":null,"TLE_LINE2":"2 47819  53.0539 319.5320 0001891  54.0092 306.1072 15.06413651 44726","SITE":"AFETR","MEAN_ANOMALY":"306.1072","ARG_OF_PERICENTER":"54.0092","GP_ID":"192177834","EPOCH":"2021-12-21T21:33:53.316864","MEAN_ELEMENT_THEORY":"SGP4","NORAD_CAT_ID":"47819","PERIAPSIS":"545.862","OBJECT_ID":"2021-018AJ","MEAN_MOTION":"15.06413651","EPHEMERIS_TYPE":"0","ELEMENT_SET_NO":"999","ECCENTRICITY":"0.00018910","CLASSIFICATION_TYPE":"U","FILE":"3246784","SEMIMAJOR_AXIS":"6925.307","COUNTRY_CODE":"US"},{"REV_AT_EPOCH":"4457","OBJECT_NAME":"STARLINK-2403","DECAY_DATE":null,"REF_FRAME":"TEME","OBJECT_TYPE":"PAYLOAD","PERIOD":"95.592","MEAN_MOTION_DDOT":"0.0000000000000","TLE_LINE1":"1 47820U 21018AK  21355.87918039 -.00000423  00000-0 -94605-5 0  9994","LAUNCH_DATE":"2021-03-11","TIME_SYSTEM":"UTC","INCLINATION":"53.0563","BSTAR":"-0.00000946050000","MEAN_MOTION_DOT":"-0.00000423","APOAPSIS":"548.407","CENTER_NAME":"EARTH","RA_OF_ASC_NODE":"329.6149","RCS_SIZE":"LARGE","COUNTRY_CODE":"US","ECCENTRICITY":"0.00017370","CLASSIFICATION_TYPE":"U","SEMIMAJOR_AXIS":"6925.340","FILE":"3246784","PERIAPSIS":"546.002","NORAD_CAT_ID":"47820","MEAN_MOTION":"15.06402940","OBJECT_ID":"2021-018AK","EPHEMERIS_TYPE":"0","ELEMENT_SET_NO":"999","TLE_LINE2":"2 47820  53.0563 329.6149 0001737  59.5309 300.5852 15.06402940 44572","SITE":"AFETR","MEAN_ANOMALY":"300.5852","GP_ID":"192178583","ARG_OF_PERICENTER":"59.5309","EPOCH":"2021-12-21T21:06:01.185696","MEAN_ELEMENT_THEORY":"SGP4"},{"COUNTRY_CODE":"US","CLASSIFICATION_TYPE":"U","FILE":"3246489","SEMIMAJOR_AXIS":"6925.347","ECCENTRICITY":"0.00023740","EPHEMERIS_TYPE":"0","ELEMENT_SET_NO":"999","NORAD_CAT_ID":"47821","PERIAPSIS":"545.568","OBJECT_ID":"2021-018AL","MEAN_MOTION":"15.06400545","ARG_OF_PERICENTER":"47.4525","GP_ID":"192148926","EPOCH":"2021-12-21T09:25:21.970560","MEAN_ELEMENT_THEORY":"SGP4","SITE":"AFETR","TLE_LINE2":"2 47821  53.0547 321.8011 0002374  47.4525 312.6664 15.06400545 44586","MEAN_ANOMALY":"312.6664","DECAY_DATE":null,"OBJECT_NAME":"STARLINK-2406","REV_AT_EPOCH":"4458","MEAN_MOTION_DDOT":"0.0000000000000","PERIOD":"95.592","TLE_LINE1":"1 47821U 21018AL  21355.39261540  .00001568  00000-0  12414-3 0  9995","OBJECT_TYPE":"PAYLOAD","REF_FRAME":"TEME","TIME_SYSTEM":"UTC","LAUNCH_DATE":"2021-03-11","BSTAR":"0.00012414000000","INCLINATION":"53.0547","RA_OF_ASC_NODE":"321.8011","CENTER_NAME":"EARTH","RCS_SIZE":"LARGE","MEAN_MOTION_DOT":"0.00001568","APOAPSIS":"548.856"},{"MEAN_ANOMALY":"304.8642","TLE_LINE2":"2 47822  53.0563 329.3552 0002061  55.2540 304.8642 15.06404417 44531","SITE":"AFETR","EPOCH":"2021-12-21T22:25:38.007552","MEAN_ELEMENT_THEORY":"SGP4","GP_ID":"192178084","ARG_OF_PERICENTER":"55.2540","MEAN_MOTION":"15.06404417","OBJECT_ID":"2021-018AM","PERIAPSIS":"545.773","NORAD_CAT_ID":"47822","ELEMENT_SET_NO":"999","EPHEMERIS_TYPE":"0","ECCENTRICITY":"0.00020610","SEMIMAJOR_AXIS":"6925.335","FILE":"3246784","CLASSIFICATION_TYPE":"U","COUNTRY_CODE":"US","APOAPSIS":"548.627","MEAN_MOTION_DOT":"0.00000084","RCS_SIZE":"LARGE","CENTER_NAME":"EARTH","RA_OF_ASC_NODE":"329.3552","INCLINATION":"53.0563","BSTAR":"0.00002452300000","LAUNCH_DATE":"2021-03-11","TIME_SYSTEM":"UTC","REF_FRAME":"TEME","OBJECT_TYPE":"PAYLOAD","TLE_LINE1":"1 47822U 21018AM  21355.93446768  .00000084  00000-0  24523-4 0  9990","PERIOD":"95.592","MEAN_MOTION_DDOT":"0.0000000000000","REV_AT_EPOCH":"4453","OBJECT_NAME":"STARLINK-2407","DECAY_DATE":null},{"TLE_LINE2":"2 47823  53.0561 319.5925 0001915  58.3393 301.7783 15.06394464 44668","SITE":"AFETR","MEAN_ANOMALY":"301.7783","ARG_OF_PERICENTER":"58.3393","GP_ID":"192178334","MEAN_ELEMENT_THEORY":"SGP4","EPOCH":"2021-12-21T21:12:39.652128","NORAD_CAT_ID":"47823","PERIAPSIS":"545.904","OBJECT_ID":"2021-018AN","MEAN_MOTION":"15.06394464","EPHEMERIS_TYPE":"0","ELEMENT_SET_NO":"999","ECCENTRICITY":"0.00019150","CLASSIFICATION_TYPE":"U","FILE":"3246784","SEMIMAJOR_AXIS":"6925.366","COUNTRY_CODE":"US","MEAN_MOTION_DOT":"-0.00002833","APOAPSIS":"548.557","RA_OF_ASC_NODE":"319.5925","CENTER_NAME":"EARTH","RCS_SIZE":"LARGE","TIME_SYSTEM":"UTC","LAUNCH_DATE":"2021-03-11","BSTAR":"-0.00017136000000","INCLINATION":"53.0561","OBJECT_TYPE":"PAYLOAD","REF_FRAME":"TEME","MEAN_MOTION_DDOT":"0.0000000000000","PERIOD":"95.592","TLE_LINE1":"1 47823U 21018AN  21355.88379227 -.00002833  00000-0 -17136-3 0  9997","OBJECT_NAME":"STARLINK-2408","REV_AT_EPOCH":"4466","DECAY_DATE":null},{"TLE_LINE2":"2 47824  53.0546 319.3469 0001974  53.5514 306.5657 15.06405010 44663","SITE":"AFETR","MEAN_ANOMALY":"306.5657","GP_ID":"192179083","ARG_OF_PERICENTER":"53.5514","MEAN_ELEMENT_THEORY":"SGP4","EPOCH":"2021-12-21T22:32:16.043712","PERIAPSIS":"545.831","NORAD_CAT_ID":"47824","MEAN_MOTION":"15.06405010","OBJECT_ID":"2021-018AP","EPHEMERIS_TYPE":"0","ELEMENT_SET_NO":"999","ECCENTRICITY":"0.00019740","CLASSIFICATION_TYPE":"U","SEMIMAJOR_AXIS":"6925.333","FILE":"3246784","COUNTRY_CODE":"US","MEAN_MOTION_DOT":"0.00002140","APOAPSIS":"548.565","CENTER_NAME":"EARTH","RA_OF_ASC_NODE":"319.3469","RCS_SIZE":"LARGE","LAUNCH_DATE":"2021-03-11","TIME_SYSTEM":"UTC","INCLINATION":"53.0546","BSTAR":"0.00016251000000","REF_FRAME":"TEME","OBJECT_TYPE":"PAYLOAD","PERIOD":"95.592","MEAN_MOTION_DDOT":"0.0000000000000","TLE_LINE1":"1 47824U 21018AP  21355.93907458  .00002140  00000-0  16251-3 0  9993","REV_AT_EPOCH":"4466","OBJECT_NAME":"STARLINK-2409","DECAY_DATE":null},{"ECCENTRICITY":"0.00017080","CLASSIFICATION_TYPE":"U","FILE":"3246784","SEMIMAJOR_AXIS":"6925.331","COUNTRY_CODE":"US","SITE":"AFETR","TLE_LINE2":"2 47825  53.0565 319.5469 0001708  65.1028 295.0138 15.06405821 44667","MEAN_ANOMALY":"295.0138","ARG_OF_PERICENTER":"65.1028","GP_ID":"192179336","EPOCH":"2021-12-21T21:23:16.583424","MEAN_ELEMENT_THEORY":"SGP4","NORAD_CAT_ID":"47825","PERIAPSIS":"546.013","OBJECT_ID":"2021-018AQ","MEAN_MOTION":"15.06405821","EPHEMERIS_TYPE":"0","ELEMENT_SET_NO":"999","OBJECT_TYPE":"PAYLOAD","REF_FRAME":"TEME","MEAN_MOTION_DDOT":"0.0000000000000","PERIOD":"95.592","TLE_LINE1":"1 47825U 21018AQ  21355.89116416 -.00001510  00000-0 -82491-4 0  9997","OBJECT_NAME":"STARLINK-2410","REV_AT_EPOCH":"4466","DECAY_DATE":null,"MEAN_MOTION_DOT":"-0.00001510","APOAPSIS":"548.379","RA_OF_ASC_NODE":"319.5469","CENTER_NAME":"EARTH","RCS_SIZE":"LARGE","TIME_SYSTEM":"UTC","LAUNCH_DATE":"2021-03-11","BSTAR":"-0.00008249100000","INCLINATION":"53.0565"},{"LAUNCH_DATE":"2021-03-11","TIME_SYSTEM":"UTC","INCLINATION":"53.0566","BSTAR":"0.00001535900000","CENTER_NAME":"EARTH","RA_OF_ASC_NODE":"319.5770","RCS_SIZE":"LARGE","MEAN_MOTION_DOT":"-0.00000053","APOAPSIS":"548.604","DECAY_DATE":null,"REV_AT_EPOCH":"4466","OBJECT_NAME":"STARLINK-2411","PERIOD":"95.592","MEAN_MOTION_DDOT":"0.0000000000000","TLE_LINE1":"1 47826U 21018AR  21355.88747976 -.00000053  00000-0  15359-4 0  9997","REF_FRAME":"TEME","OBJECT_TYPE":"PAYLOAD","EPHEMERIS_TYPE":"0","ELEMENT_SET_NO":"999","PERIAPSIS":"545.855","NORAD_CAT_ID":"47826","MEAN_MOTION":"15.06394849","OBJECT_ID":"2021-018AR","GP_ID":"192177585","ARG_OF_PERICENTER":"44.2235","EPOCH":"2021-12-21T21:17:58.251264","MEAN_ELEMENT_THEORY":"SGP4","SITE":"AFETR","TLE_LINE2":"2 47826  53.0566 319.5770 0001985  44.2235 315.8912 15.06394849 44667","MEAN_ANOMALY":"315.8912","COUNTRY_CODE":"US","CLASSIFICATION_TYPE":"U","SEMIMAJOR_AXIS":"6925.364","FILE":"3246784","ECCENTRICITY":"0.00019850"},{"REF_FRAME":"TEME","OBJECT_TYPE":"PAYLOAD","PERIOD":"95.592","MEAN_MOTION_DDOT":"0.0000000000000","TLE_LINE1":"1 47827U 21018AS  21355.84690635 -.00000722  00000-0 -29589-4 0  9997","REV_AT_EPOCH":"4446","OBJECT_NAME":"STARLINK-2413","DECAY_DATE":null,"MEAN_MOTION_DOT":"-0.00000722","APOAPSIS":"548.427","CENTER_NAME":"EARTH","RA_OF_ASC_NODE":"309.7600","RCS_SIZE":"LARGE","LAUNCH_DATE":"2021-03-11","TIME_SYSTEM":"UTC","INCLINATION":"53.0553","BSTAR":"-0.00002958900000","ECCENTRICITY":"0.00017750","CLASSIFICATION_TYPE":"U","SEMIMAJOR_AXIS":"6925.333","FILE":"3246662","COUNTRY_CODE":"US","TLE_LINE2":"2 47827  53.0553 309.7600 0001775  70.1812 289.9368 15.06405193 44462","SITE":"AFETR","MEAN_ANOMALY":"289.9368","GP_ID":"192153268","ARG_OF_PERICENTER":"70.1812","MEAN_ELEMENT_THEORY":"SGP4","EPOCH":"2021-12-21T20:19:32.708640","PERIAPSIS":"545.968","NORAD_CAT_ID":"47827","MEAN_MOTION":"15.06405193","OBJECT_ID":"2021-018AS","EPHEMERIS_TYPE":"0","ELEMENT_SET_NO":"999"},{"INCLINATION":"53.0562","BSTAR":"0.00022715000000","LAUNCH_DATE":"2021-03-11","TIME_SYSTEM":"UTC","APOAPSIS":"548.514","MEAN_MOTION_DOT":"0.00003104","RCS_SIZE":"LARGE","CENTER_NAME":"EARTH","RA_OF_ASC_NODE":"331.7295","REV_AT_EPOCH":"4445","OBJECT_NAME":"STARLINK-2415","DECAY_DATE":null,"REF_FRAME":"TEME","OBJECT_TYPE":"PAYLOAD","TLE_LINE1":"1 47828U 21018AT  21355.40737827  .00003104  00000-0  22715-3 0  9993","PERIOD":"95.591","MEAN_MOTION_DDOT":"0.0000000000000","MEAN_MOTION":"15.06412949","OBJECT_ID":"2021-018AT","PERIAPSIS":"545.834","NORAD_CAT_ID":"47828","ELEMENT_SET_NO":"999","EPHEMERIS_TYPE":"0","MEAN_ANOMALY":"308.6161","TLE_LINE2":"2 47828  53.0562 331.7295 0001935  51.5002 308.6161 15.06412949 44456","SITE":"AFETR","MEAN_ELEMENT_THEORY":"SGP4","EPOCH":"2021-12-21T09:46:37.482528","GP_ID":"192147675","ARG_OF_PERICENTER":"51.5002","COUNTRY_CODE":"US","ECCENTRICITY":"0.00019350","SEMIMAJOR_AXIS":"6925.309","FILE":"3246489","CLASSIFICATION_TYPE":"U"}];
